ONEWEB-0210             
1 48787U 21045W   25329.62266515  .00000131  00000+0  31508-3 0  9994
2 48787  87.8981 299.7928 0002484  92.3594 267.7820 13.15548794217552
ONEWEB-0214             
1 48788U 21045X   25329.63136470  .00000015  00000+0  50861-5 0  9998
2 48788  87.8990 299.7809 0002195  93.9173 266.2209 13.15550794217525
ONEWEB-0221             
1 48789U 21045Y   25329.63850566 -.00000064  00000+0 -20433-3 0  9994
2 48789  87.8978 299.7963 0002143  82.8844 277.2530 13.15547469217612
ONEWEB-0213             
1 48790U 21045Z   25329.62742411  .00000057  00000+0  11712-3 0  9994
2 48790  87.8969 299.8073 0002186  85.3319 274.8061 13.15549668217670
ONEWEB-0212             
1 48791U 21045AA  25329.83261601  .00000110  00000+0  25695-3 0  9990
2 48791  87.8984 299.7548 0001875  81.5487 278.5855 13.15548256217698
ONEWEB-0227             
1 48792U 21045AB  25329.83181779  .00000067  00000+0  14271-3 0  9997
2 48792  87.8969 299.7670 0002056  82.8321 277.3043 13.15545822217648
ONEWEB-0226             
1 48793U 21045AC  25329.67337170  .00000178  00000+0  43792-3 0  9991
2 48793  87.8971 299.8075 0002188  88.8634 271.2746 13.15547619217594
ONEWEB-0224             
1 48794U 21045AD  25329.48481177 -.00000010  00000+0 -59463-4 0  9998
2 48794  87.8972 299.8801 0002372  61.6239 298.5130 13.15548648217499
